[
    {
        "Altitude(m)": 704394.5601689329,
        "Argument of Periapsis(deg)": 0.007973084830638947,
        "Eccentricity": 0.0,
        "Inclination(deg)": 45.0,
        "Latitude(deg)": -5.940012669642995,
        "Longitude(deg)": 148.5274509668223,
        "Mean Anomaly(deg)": -8.290348346763507,
        "RAAN(deg)": 254.99247364097928,
        "Satellite Name": "Constellation 1 1143",
        "Satellite Number": 1143,
        "Semi-Major Axis(m)": 7083131.272910544,
        "Time(s)": 133
    },
    {
        "Altitude(m)": 704386.2199989033,
        "Argument of Periapsis(deg)": 0.008033032836884352,
        "Eccentricity": 0.0,
        "Inclination(deg)": 45.0,
        "Latitude(deg)": -5.897042320795189,
        "Longitude(deg)": 148.56664673613236,
        "Mean Anomaly(deg)": -8.229647206513569,
        "RAAN(deg)": 254.99241705181373,
        "Satellite Name": "Constellation 1 1143",
        "Satellite Number": 1143,
        "Semi-Major Axis(m)": 7083131.272910544,
        "Time(s)": 134
    },
    {
        "Altitude(m)": 704377.8987440177,
        "Argument of Periapsis(deg)": 0.008092980843129758,
        "Eccentricity": 0.0,
        "Inclination(deg)": 45.0,
        "Latitude(deg)": -5.854068458039128,
        "Longitude(deg)": 148.6058359281299,
        "Mean Anomaly(deg)": -8.168946066263631,
        "RAAN(deg)": 254.99236046264818,
        "Satellite Name": "Constellation 1 1143",
        "Satellite Number": 1143,
        "Semi-Major Axis(m)": 7083131.272910544,
        "Time(s)": 135
    },
    {
        "Altitude(m)": 704369.5964231718,
        "Argument of Periapsis(deg)": 0.008152928849375162,
        "Eccentricity": 0.0,
        "Inclination(deg)": 45.0,
        "Latitude(deg)": -5.8110911071148985,
        "Longitude(deg)": 148.64501859205265,
        "Mean Anomaly(deg)": -8.108244926013796,
        "RAAN(deg)": 254.99230387348254,
        "Satellite Name": "Constellation 1 1143",
        "Satellite Number": 1143,
        "Semi-Major Axis(m)": 7083131.272910544,
        "Time(s)": 136
    },
    {
        "Altitude(m)": 704361.3130551733,
        "Argument of Periapsis(deg)": 0.008212876855620568,
        "Eccentricity": 0.0,
        "Inclination(deg)": 45.0,
        "Latitude(deg)": -5.768110293750109,
        "Longitude(deg)": 148.68419477712493,
        "Mean Anomaly(deg)": -8.047543785763859,
        "RAAN(deg)": 254.992247284317,
        "Satellite Name": "Constellation 1 1143",
        "Satellite Number": 1143,
        "Semi-Major Axis(m)": 7083131.272910544,
        "Time(s)": 137
    },
    {
        "Altitude(m)": 704353.0486587435,
        "Argument of Periapsis(deg)": 0.008272824861865974,
        "Eccentricity": 0.0,
        "Inclination(deg)": 45.0,
        "Latitude(deg)": -5.725126043660634,
        "Longitude(deg)": 148.72336453255667,
        "Mean Anomaly(deg)": -7.986842645513922,
        "RAAN(deg)": 254.99219069515144,
        "Satellite Name": "Constellation 1 1143",
        "Satellite Number": 1143,
        "Semi-Major Axis(m)": 7083131.272910544,
        "Time(s)": 138
    },
    {
        "Altitude(m)": 704344.8032525128,
        "Argument of Periapsis(deg)": 0.00833277286811138,
        "Eccentricity": 0.0,
        "Inclination(deg)": 45.0,
        "Latitude(deg)": -5.682138382550443,
        "Longitude(deg)": 148.76252790754415,
        "Mean Anomaly(deg)": -7.926141505264137,
        "RAAN(deg)": 254.99213410598588,
        "Satellite Name": "Constellation 1 1143",
        "Satellite Number": 1143,
        "Semi-Major Axis(m)": 7083131.272910544,
        "Time(s)": 139
    },
    {
        "Altitude(m)": 704336.5768550182,
        "Argument of Periapsis(deg)": 0.008392720874356788,
        "Eccentricity": 0.0,
        "Inclination(deg)": 45.0,
        "Latitude(deg)": -5.6391473361112014,
        "Longitude(deg)": 148.80168495127037,
        "Mean Anomaly(deg)": -7.865440365014199,
        "RAAN(deg)": 254.99207751682027,
        "Satellite Name": "Constellation 1 1143",
        "Satellite Number": 1143,
        "Semi-Major Axis(m)": 7083131.272910544,
        "Time(s)": 140
    },
    {
        "Altitude(m)": 704328.3694847267,
        "Argument of Periapsis(deg)": 0.008452668880602192,
        "Eccentricity": 0.0,
        "Inclination(deg)": 45.0,
        "Latitude(deg)": -5.596152930022992,
        "Longitude(deg)": 148.84083554480742,
        "Mean Anomaly(deg)": -7.804739224764261,
        "RAAN(deg)": 254.99202092765472,
        "Satellite Name": "Constellation 1 1143",
        "Satellite Number": 1143,
        "Semi-Major Axis(m)": 7083131.272910544,
        "Time(s)": 141
    },
    {
        "Altitude(m)": 704320.1811599868,
        "Argument of Periapsis(deg)": 0.008512616886847598,
        "Eccentricity": 0.0,
        "Inclination(deg)": 45.0,
        "Latitude(deg)": -5.553155189954863,
        "Longitude(deg)": 148.87998007350504,
        "Mean Anomaly(deg)": -7.744038084514376,
        "RAAN(deg)": 254.99196433848914,
        "Satellite Name": "Constellation 1 1143",
        "Satellite Number": 1143,
        "Semi-Major Axis(m)": 7083131.272910544,
        "Time(s)": 142
    },
    {
        "Altitude(m)": 704312.0118990823,
        "Argument of Periapsis(deg)": 0.008572564893093004,
        "Eccentricity": 0.0,
        "Inclination(deg)": 45.0,
        "Latitude(deg)": -5.510154141563497,
        "Longitude(deg)": 148.91911841840866,
        "Mean Anomaly(deg)": -7.683336944264489,
        "RAAN(deg)": 254.9919077493236,
        "Satellite Name": "Constellation 1 1143",
        "Satellite Number": 1143,
        "Semi-Major Axis(m)": 7083131.272910544,
        "Time(s)": 143
    },
    {
        "Altitude(m)": 704303.861720202,
        "Argument of Periapsis(deg)": 0.008632512899338408,
        "Eccentricity": 0.0,
        "Inclination(deg)": 45.0,
        "Latitude(deg)": -5.46714981049423,
        "Longitude(deg)": 148.9582506286476,
        "Mean Anomaly(deg)": -7.622635804014552,
        "RAAN(deg)": 254.99185116015803,
        "Satellite Name": "Constellation 1 1143",
        "Satellite Number": 1143,
        "Semi-Major Axis(m)": 7083131.272910544,
        "Time(s)": 144
    },
    {
        "Altitude(m)": 704295.7306414391,
        "Argument of Periapsis(deg)": 0.008692460905583814,
        "Eccentricity": 0.0,
        "Inclination(deg)": 45.0,
        "Latitude(deg)": -5.42414222238119,
        "Longitude(deg)": 148.9973767533379,
        "Mean Anomaly(deg)": -7.561934663764614,
        "RAAN(deg)": 254.99179457099243,
        "Satellite Name": "Constellation 1 1143",
        "Satellite Number": 1143,
        "Semi-Major Axis(m)": 7083131.272910544,
        "Time(s)": 145
    },
    {
        "Altitude(m)": 704287.6186808024,
        "Argument of Periapsis(deg)": 0.00875240891182922,
        "Eccentricity": 0.0,
        "Inclination(deg)": 45.0,
        "Latitude(deg)": -5.381131402847269,
        "Longitude(deg)": 149.03649684158242,
        "Mean Anomaly(deg)": -7.501233523514829,
        "RAAN(deg)": 254.99173798182687,
        "Satellite Name": "Constellation 1 1143",
        "Satellite Number": 1143,
        "Semi-Major Axis(m)": 7083131.272910544,
        "Time(s)": 146
    },
    {
        "Altitude(m)": 704279.5258562177,
        "Argument of Periapsis(deg)": 0.008812356918074627,
        "Eccentricity": 0.0,
        "Inclination(deg)": 45.0,
        "Latitude(deg)": -5.3381173775036945,
        "Longitude(deg)": 149.07561094247149,
        "Mean Anomaly(deg)": -7.4405323832648405,
        "RAAN(deg)": 254.9916813926613,
        "Satellite Name": "Constellation 1 1143",
        "Satellite Number": 1143,
        "Semi-Major Axis(m)": 7083131.272910544,
        "Time(s)": 147
    },
    {
        "Altitude(m)": 704271.4521855053,
        "Argument of Periapsis(deg)": 0.008872304924320031,
        "Eccentricity": 0.0,
        "Inclination(deg)": 45.0,
        "Latitude(deg)": -5.2951001719508755,
        "Longitude(deg)": 149.11471893698518,
        "Mean Anomaly(deg)": -7.3798312430149045,
        "RAAN(deg)": 254.99162480349574,
        "Satellite Name": "Constellation 1 1143",
        "Satellite Number": 1143,
        "Semi-Major Axis(m)": 7083131.272910544,
        "Time(s)": 148
    },
    {
        "Altitude(m)": 704263.397686414,
        "Argument of Periapsis(deg)": 0.008932252930565437,
        "Eccentricity": 0.0,
        "Inclination(deg)": 45.0,
        "Latitude(deg)": -5.252079811778747,
        "Longitude(deg)": 149.15382121038218,
        "Mean Anomaly(deg)": -7.319130102765068,
        "RAAN(deg)": 254.99156821433013,
        "Satellite Name": "Constellation 1 1143",
        "Satellite Number": 1143,
        "Semi-Major Axis(m)": 7083131.272910544,
        "Time(s)": 149
    },
    {
        "Altitude(m)": 704255.3623765911,
        "Argument of Periapsis(deg)": 0.008992200936810843,
        "Eccentricity": 0.0,
        "Inclination(deg)": 45.0,
        "Latitude(deg)": -5.209056322565487,
        "Longitude(deg)": 149.19291764361728,
        "Mean Anomaly(deg)": -7.258428962515182,
        "RAAN(deg)": 254.99151162516458,
        "Satellite Name": "Constellation 1 1143",
        "Satellite Number": 1143,
        "Semi-Major Axis(m)": 7083131.272910544,
        "Time(s)": 150
    },
    {
        "Altitude(m)": 704247.3462736022,
        "Argument of Periapsis(deg)": 0.009052148943056249,
        "Eccentricity": 0.0,
        "Inclination(deg)": 45.0,
        "Latitude(deg)": -5.1660297298786855,
        "Longitude(deg)": 149.23200828572996,
        "Mean Anomaly(deg)": -7.197727822265244,
        "RAAN(deg)": 254.99145503599902,
        "Satellite Name": "Constellation 1 1143",
        "Satellite Number": 1143,
        "Semi-Major Axis(m)": 7083131.272910544,
        "Time(s)": 151
    }
]